[{"OBJECT_NAME":"TIANQI-23","OBJECT_ID":"2023-135C","EPOCH":"2026-03-09T20:31:13.186272","MEAN_MOTION":14.2309434,"ECCENTRICITY":0.00136094,"INCLINATION":49.9718,"RA_OF_ASC_NODE":210.4766,"ARG_OF_PERICENTER":271.4646,"MEAN_ANOMALY":88.4707,"EPHEMERIS_TYPE":0,"CLASSIFICATION_TYPE":"U","NORAD_CAT_ID":57794,"ELEMENT_SET_NO":999,"REV_AT_EPOCH":13048,"BSTAR":0.00026414029,"MEAN_MOTION_DOT":4.41e-6,"MEAN_MOTION_DDOT":0},{"OBJECT_NAME":"COSMOS 970 DEB","OBJECT_ID":"1977-121BP","EPOCH":"2026-03-09T09:19:03.588672","MEAN_MOTION":13.99739419,"ECCENTRICITY":0.01733244,"INCLINATION":65.8062,"RA_OF_ASC_NODE":184.2138,"ARG_OF_PERICENTER":268.2699,"MEAN_ANOMALY":89.8518,"EPHEMERIS_TYPE":0,"CLASSIFICATION_TYPE":"U","NORAD_CAT_ID":17732,"ELEMENT_SET_NO":999,"REV_AT_EPOCH":7615,"BSTAR":0.0014969482,"MEAN_MOTION_DOT":2.413e-5,"MEAN_MOTION_DDOT":0}]
